{"type": "FeatureCollection", "features": [{"type": "Feature", "properties": {"norad_id": 28054, "name": "DMSP 5D-3 F16 (USA 172)", "group": "weather", "lat": -10.415448061773576, "lon": 17.077057576098824, "alt_km": 846.4326367825197, "timestamp": "2025-12-23T20:42:36.715521+00:00", "meta": {"OBJECT_NAME": "DMSP 5D-3 F16 (USA 172)", "OBJECT_ID": "2003-048A", "EPOCH": "2025-12-23T05:49:14.257632", "MEAN_MOTION": 14.14427813, "ECCENTRICITY": 0.00062564, "INCLINATION": 99.0038, "RA_OF_ASC_NODE": 14.7818, "ARG_OF_PERICENTER": 287.2268, "MEAN_ANOMALY": 145.0004, "EPHEMERIS_TYPE": 0, "CLASSIFICATION_TYPE": "U", "NORAD_CAT_ID": 28054, "ELEMENT_SET_NO": 999, "REV_AT_EPOCH": 14461, "BSTAR": 8.0372641e-05, "MEAN_MOTION_DOT": 1.08e-06, "MEAN_MOTION_DDOT": 0}, "tle": {"line1": "1 28054U 03048A   25357.24252613  .00000108  00000+0  80373-4 0  9994", "line2": "2 28054  99.0038  14.7818 0006256 287.2268 145.0004 14.14427813144618"}}, "geometry": {"type": "Point", "coordinates": [17.077057576098824, -10.415448061773576]}}, {"type": "Feature", "properties": {"norad_id": 28912, "name": "METEOSAT-9 (MSG-2)", "group": "weather", "lat": 4.884352688110744, "lon": 88.57626307597003, "alt_km": 35879.59442504053, "timestamp": "2025-12-23T20:42:36.715587+00:00", "meta": {"OBJECT_NAME": "METEOSAT-9 (MSG-2)", "OBJECT_ID": "2005-049B", "EPOCH": "2025-12-22T18:31:08.664384", "MEAN_MOTION": 1.00267705, "ECCENTRICITY": 0.00617708, "INCLINATION": 8.9523, "RA_OF_ASC_NODE": 55.8676, "ARG_OF_PERICENTER": 281.9132, "MEAN_ANOMALY": 76.5371, "EPHEMERIS_TYPE": 0, "CLASSIFICATION_TYPE": "U", "NORAD_CAT_ID": 28912, "ELEMENT_SET_NO": 999, "REV_AT_EPOCH": 522, "BSTAR": 0, "MEAN_MOTION_DOT": 1.44e-06, "MEAN_MOTION_DDOT": 0}, "tle": {"line1": "1 28912U 05049B   25356.77162806  .00000144  00000+0  00000+0 0  9995", "line2": "2 28912   8.9523  55.8676 0061770 281.9132  76.5371  1.00267705  5221"}}, "geometry": {"type": "Point", "coordinates": [88.57626307597003, 4.884352688110744]}}, {"type": "Feature", "properties": {"norad_id": 29522, "name": "DMSP 5D-3 F17 (USA 191)", "group": "weather", "lat": -49.717425621178215, "lon": 13.47678003317737, "alt_km": 852.7335103543674, "timestamp": "2025-12-23T20:42:36.715606+00:00", "meta": {"OBJECT_NAME": "DMSP 5D-3 F17 (USA 191)", "OBJECT_ID": "2006-050A", "EPOCH": "2025-12-23T02:16:48.630720", "MEAN_MOTION": 14.1492397, "ECCENTRICITY": 0.00098459, "INCLINATION": 98.7391, "RA_OF_ASC_NODE": 2.2685, "ARG_OF_PERICENTER": 193.8687, "MEAN_ANOMALY": 166.2218, "EPHEMERIS_TYPE": 0, "CLASSIFICATION_TYPE": "U", "NORAD_CAT_ID": 29522, "ELEMENT_SET_NO": 999, "REV_AT_EPOCH": 98751, "BSTAR": 9.605131e-05, "MEAN_MOTION_DOT": 1.42e-06, "MEAN_MOTION_DDOT": 0}, "tle": {"line1": "1 29522U 06050A   25357.09500730  .00000142  00000+0  96051-4 0  9998", "line2": "2 29522  98.7391   2.2685 0009845 193.8687 166.2218 14.14923970987516"}}, "geometry": {"type": "Point", "coordinates": [13.47678003317737, -49.717425621178215]}}, {"type": "Feature", "properties": {"norad_id": 32958, "name": "FENGYUN 3A", "group": "weather", "lat": -26.835498792182968, "lon": 112.72811694907797, "alt_km": 830.5606954656569, "timestamp": "2025-12-23T20:42:36.715620+00:00", "meta": {"OBJECT_NAME": "FENGYUN 3A", "OBJECT_ID": "2008-026A", "EPOCH": "2025-12-22T20:03:12.943008", "MEAN_MOTION": 14.19517515, "ECCENTRICITY": 0.00076474, "INCLINATION": 98.6712, "RA_OF_ASC_NODE": 296.1503, "ARG_OF_PERICENTER": 277.7214, "MEAN_ANOMALY": 82.3094, "EPHEMERIS_TYPE": 0, "CLASSIFICATION_TYPE": "U", "NORAD_CAT_ID": 32958, "ELEMENT_SET_NO": 999, "REV_AT_EPOCH": 91038, "BSTAR": 5.9361681e-05, "MEAN_MOTION_DOT": 8.2e-07, "MEAN_MOTION_DDOT": 0}, "tle": {"line1": "1 32958U 08026A   25356.83556647  .00000082  00000+0  59362-4 0  9996", "line2": "2 32958  98.6712 296.1503 0007647 277.7214  82.3094 14.19517515910388"}}, "geometry": {"type": "Point", "coordinates": [112.72811694907797, -26.835498792182968]}}, {"type": "Feature", "properties": {"norad_id": 35491, "name": "GOES 14", "group": "weather", "lat": -0.469115909188981, "lon": -73.47447405953055, "alt_km": 35832.79182662828, "timestamp": "2025-12-23T20:42:36.715634+00:00", "meta": {"OBJECT_NAME": "GOES 14", "OBJECT_ID": "2009-033A", "EPOCH": "2025-12-23T05:51:50.753952", "MEAN_MOTION": 1.00097012, "ECCENTRICITY": 5.808e-05, "INCLINATION": 1.2294, "RA_OF_ASC_NODE": 85.2984, "ARG_OF_PERICENTER": 188.1226, "MEAN_ANOMALY": 150.2002, "EPHEMERIS_TYPE": 0, "CLASSIFICATION_TYPE": "U", "NORAD_CAT_ID": 35491, "ELEMENT_SET_NO": 999, "REV_AT_EPOCH": 482, "BSTAR": 0, "MEAN_MOTION_DOT": 2.9e-07, "MEAN_MOTION_DDOT": 0}, "tle": {"line1": "1 35491U 09033A   25357.24433743  .00000029  00000+0  00000+0 0  9998", "line2": "2 35491   1.2294  85.2984 0000580 188.1226 150.2002  1.00097012  4823"}}, "geometry": {"type": "Point", "coordinates": [-73.47447405953055, -0.469115909188981]}}, {"type": "Feature", "properties": {"norad_id": 35951, "name": "DMSP 5D-3 F18 (USA 210)", "group": "weather", "lat": 8.658305011079127, "lon": 155.5735041432088, "alt_km": 851.0803545266726, "timestamp": "2025-12-23T20:42:36.715647+00:00", "meta": {"OBJECT_NAME": "DMSP 5D-3 F18 (USA 210)", "OBJECT_ID": "2009-057A", "EPOCH": "2025-12-23T02:55:53.256288", "MEAN_MOTION": 14.14775935, "ECCENTRICITY": 0.00117719, "INCLINATION": 98.8847, "RA_OF_ASC_NODE": 333.4715, "ARG_OF_PERICENTER": 35.3507, "MEAN_ANOMALY": 324.8444, "EPHEMERIS_TYPE": 0, "CLASSIFICATION_TYPE": "U", "NORAD_CAT_ID": 35951, "ELEMENT_SET_NO": 999, "REV_AT_EPOCH": 83469, "BSTAR": 0.0001688268, "MEAN_MOTION_DOT": 2.81e-06, "MEAN_MOTION_DDOT": 0}, "tle": {"line1": "1 35951U 09057A   25357.12214417  .00000281  00000+0  16883-3 0  9997", "line2": "2 35951  98.8847 333.4715 0011771  35.3507 324.8444 14.14775935834690"}}, "geometry": {"type": "Point", "coordinates": [155.5735041432088, 8.658305011079127]}}, {"type": "Feature", "properties": {"norad_id": 36411, "name": "EWS-G2 (GOES 15)", "group": "weather", "lat": 0.2905070026327344, "lon": 104.62640737982677, "alt_km": 35808.143705670824, "timestamp": "2025-12-23T20:42:36.715661+00:00", "meta": {"OBJECT_NAME": "EWS-G2 (GOES 15)", "OBJECT_ID": "2010-008A", "EPOCH": "2025-12-23T04:42:38.708640", "MEAN_MOTION": 1.00271104, "ECCENTRICITY": 0.00055146, "INCLINATION": 0.838, "RA_OF_ASC_NODE": 86.0715, "ARG_OF_PERICENTER": 178.5154, "MEAN_ANOMALY": 319.4215, "EPHEMERIS_TYPE": 0, "CLASSIFICATION_TYPE": "U", "NORAD_CAT_ID": 36411, "ELEMENT_SET_NO": 999, "REV_AT_EPOCH": 5787, "BSTAR": 0, "MEAN_MOTION_DOT": 5.9e-07, "MEAN_MOTION_DDOT": 0}, "tle": {"line1": "1 36411U 10008A   25357.19628135  .00000059  00000+0  00000+0 0  9993", "line2": "2 36411   0.8380  86.0715 0005514 178.5154 319.4215  1.00271104 57877"}}, "geometry": {"type": "Point", "coordinates": [104.62640737982677, 0.2905070026327344]}}, {"type": "Feature", "properties": {"norad_id": 36744, "name": "COMS 1", "group": "weather", "lat": 4.367961670204977, "lon": 171.47566545386834, "alt_km": 35787.3832132788, "timestamp": "2025-12-23T20:42:36.715675+00:00", "meta": {"OBJECT_NAME": "COMS 1", "OBJECT_ID": "2010-032A", "EPOCH": "2025-12-22T21:34:51.646368", "MEAN_MOTION": 1.00271059, "ECCENTRICITY": 7.731e-05, "INCLINATION": 4.3632, "RA_OF_ASC_NODE": 77.8837, "ARG_OF_PERICENTER": 211.4503, "MEAN_ANOMALY": 254.2562, "EPHEMERIS_TYPE": 0, "CLASSIFICATION_TYPE": "U", "NORAD_CAT_ID": 36744, "ELEMENT_SET_NO": 999, "REV_AT_EPOCH": 4932, "BSTAR": 0, "MEAN_MOTION_DOT": -3.25e-06, "MEAN_MOTION_DDOT": 0}, "tle": {"line1": "1 36744U 10032A   25356.89920887 -.00000325  00000+0  00000+0 0  9991", "line2": "2 36744   4.3632  77.8837 0000773 211.4503 254.2562  1.00271059 49326"}}, "geometry": {"type": "Point", "coordinates": [171.47566545386834, 4.367961670204977]}}, {"type": "Feature", "properties": {"norad_id": 37214, "name": "FENGYUN 3B", "group": "weather", "lat": 42.79483416238127, "lon": -133.6558503492438, "alt_km": 854.7927425149528, "timestamp": "2025-12-23T20:42:36.715688+00:00", "meta": {"OBJECT_NAME": "FENGYUN 3B", "OBJECT_ID": "2010-059A", "EPOCH": "2025-12-23T07:07:48.334080", "MEAN_MOTION": 14.14791632, "ECCENTRICITY": 0.00215695, "INCLINATION": 98.9889, "RA_OF_ASC_NODE": 37.3476, "ARG_OF_PERICENTER": 327.629, "MEAN_ANOMALY": 168.4414, "EPHEMERIS_TYPE": 0, "CLASSIFICATION_TYPE": "U", "NORAD_CAT_ID": 37214, "ELEMENT_SET_NO": 999, "REV_AT_EPOCH": 78255, "BSTAR": -2.953913e-06, "MEAN_MOTION_DOT": -5.1e-07, "MEAN_MOTION_DDOT": 0}, "tle": {"line1": "1 37214U 10059A   25357.29708720 -.00000051  00000+0 -29539-5 0  9999", "line2": "2 37214  98.9889  37.3476 0021569 327.6290 168.4414 14.14791632782555"}}, "geometry": {"type": "Point", "coordinates": [-133.6558503492438, 42.79483416238127]}}, {"type": "Feature", "properties": {"norad_id": 37849, "name": "SUOMI NPP", "group": "weather", "lat": 13.738996454066244, "lon": 117.27002654978054, "alt_km": 827.2315586811083, "timestamp": "2025-12-23T20:42:36.715700+00:00", "meta": {"OBJECT_NAME": "SUOMI NPP", "OBJECT_ID": "2011-061A", "EPOCH": "2025-12-22T15:10:21.732672", "MEAN_MOTION": 14.19516903, "ECCENTRICITY": 0.00024883, "INCLINATION": 98.7787, "RA_OF_ASC_NODE": 293.8852, "ARG_OF_PERICENTER": 103.0781, "MEAN_ANOMALY": 257.0673, "EPHEMERIS_TYPE": 0, "CLASSIFICATION_TYPE": "U", "NORAD_CAT_ID": 37849, "ELEMENT_SET_NO": 999, "REV_AT_EPOCH": 73339, "BSTAR": 6.3406935e-05, "MEAN_MOTION_DOT": 8.9e-07, "MEAN_MOTION_DDOT": 0}, "tle": {"line1": "1 37849U 11061A   25356.63219598  .00000089  00000+0  63407-4 0  9994", "line2": "2 37849  98.7787 293.8852 0002488 103.0781 257.0673 14.19516903733392"}}, "geometry": {"type": "Point", "coordinates": [117.27002654978054, 13.738996454066244]}}]}